NORAD_CAT_ID,OBJECT_NAME,OBJECT_TYPE,EPOCH,MEAN_MOTION,ECCENTRICITY,INCLINATION,RA_OF_ASC_NODE,ARG_OF_PERICENTER,MEAN_ANOMALY,BSTAR,MEAN_MOTION_DOT,MEAN_MOTION_DDOT,TLE_LINE0,TLE_LINE1,TLE_LINE2,SEMIMAJOR_AXIS,PERIOD,APOGEE,PERIGEE,DECAYED
55754.0,STARLINK-5612,PAYLOAD,2023-12-10 21:16:19,14.98330853,0.0002834,69.9986,151.3867,269.9849,90.0986,9.4838e-06,2e-07,0.0,0 STARLINK-5612,1 55754U 23028P   23344.88633521  .00000020  00000-0  94838-5 0  9992,2 55754  69.9986 151.3867 0002834 269.9849  90.0986 14.98330853 43249,6950.19,96.107,574.025,570.086,0.0
55754.0,STARLINK-5612,PAYLOAD,2023-12-11 11:41:31,14.98330055,0.0002841,69.9986,149.8717,270.7524,89.3309,3.2388e-05,2.93e-06,0.0,0 STARLINK-5612,1 55754U 23028P   23345.48717455  .00000293  00000-0  32388-4 0  9991,2 55754  69.9986 149.8717 0002841 270.7524  89.3309 14.98330055 43337,6950.193,96.107,574.032,570.083,0.0
55754.0,STARLINK-5612,PAYLOAD,2023-12-11 14:53:47,14.98330691,0.0002809,69.9987,149.5346,269.126,90.9577,3.9486e-05,3.78e-06,0.0,0 STARLINK-5612,1 55754U 23028P   23345.62069375  .00000378  00000-0  39486-4 0  9998,2 55754  69.9987 149.5346 0002809 269.1260  90.9577 14.98330691 43359,6950.191,96.107,574.008,570.103,0.0
55754.0,STARLINK-5612,PAYLOAD,2023-12-11 21:18:20,14.98330644,0.0002824,69.9989,148.8616,268.2939,91.7896,4.1964e-05,4.08e-06,0.0,0 STARLINK-5612,1 55754U 23028P   23345.88773347  .00000408  00000-0  41964-4 0  9995,2 55754  69.9989 148.8616 0002824 268.2939  91.7896 14.98330644 43398,6950.191,96.107,574.019,570.093,0.0
55754.0,STARLINK-5612,PAYLOAD,2023-12-12 11:43:32,14.98330508,0.0002785,69.999,147.3469,266.1968,93.8873,-7.6174e-06,-1.84e-06,0.0,0 STARLINK-5612,1 55754U 23028P   23346.48857441 -.00000184  00000-0 -76174-5 0  9995,2 55754  69.9990 147.3469 0002785 266.1968  93.8873 14.98330508 43482,6950.191,96.107,573.992,570.121,0.0
55754.0,STARLINK-5612,PAYLOAD,2023-12-12 13:19:40,14.98330716,0.000278,69.999,147.1784,265.7588,94.3253,-4.5637e-06,-1.47e-06,0.0,0 STARLINK-5612,1 55754U 23028P   23346.55533408 -.00000147  00000-0 -45637-5 0  9996,2 55754  69.9990 147.1784 0002780 265.7588  94.3253 14.98330716 43498,6950.191,96.107,573.988,570.124,0.0
55754.0,STARLINK-5612,PAYLOAD,2023-12-12 19:44:13,14.98330114,0.0002796,69.9991,146.5052,267.2849,92.799,-9.485e-06,-2.06e-06,0.0,0 STARLINK-5612,1 55754U 23028P   23346.82237450 -.00000206  00000-0 -94850-5 0  9991,2 55754  69.9991 146.5052 0002796 267.2849  92.7990 14.98330114 43531,6950.193,96.107,574.001,570.114,0.0
55754.0,STARLINK-5612,PAYLOAD,2023-12-13 11:45:33,14.98331777,0.0002799,69.9993,144.8222,267.8312,92.2526,-5.1451e-06,-1.54e-06,0.0,0 STARLINK-5612,1 55754U 23028P   23347.48997261 -.00000154  00000-0 -51451-5 0  9999,2 55754  69.9993 144.8222 0002799 267.8312  92.2526 14.98331777 43634,6950.187,96.107,573.998,570.107,0.0
55754.0,STARLINK-5612,PAYLOAD,2023-12-13 14:57:49,14.98331436,0.0002808,69.9993,144.4856,267.3034,92.7803,-9.6008e-06,-2.08e-06,0.0,0 STARLINK-5612,1 55754U 23028P   23347.62349272 -.00000208  00000-0 -96008-5 0  9995,2 55754  69.9993 144.4856 0002808 267.3034  92.7803 14.98331436 43657,6950.188,96.107,574.005,570.102,0.0
55754.0,STARLINK-5612,PAYLOAD,2023-12-13 19:46:13,14.98331165,0.0002763,69.9995,143.981,264.0812,96.0032,-7.1095e-08,-9.4e-07,0.0,0 STARLINK-5612,1 55754U 23028P   23347.82377231 -.00000094  00000-0 -71095-7 0  9997,2 55754  69.9995 143.9810 0002763 264.0812  96.0032 14.98331165 43684,6950.189,96.107,573.975,570.134,0.0
55754.0,STARLINK-5612,PAYLOAD,2023-12-14 11:47:34,14.98330519,0.0002763,69.9997,142.2988,261.769,98.3156,-2.023e-05,-3.34e-06,0.0,0 STARLINK-5612,1 55754U 23028P   23348.49137286 -.00000334  00000-0 -20230-4 0  9994,2 55754  69.9997 142.2988 0002763 261.7690  98.3156 14.98330519 43787,6950.191,96.107,573.977,570.136,0.0
55754.0,STARLINK-5612,PAYLOAD,2023-12-14 13:23:42,14.98330826,0.0002775,69.9997,142.1304,263.0247,97.0597,-1.8887e-05,-3.18e-06,0.0,0 STARLINK-5612,1 55754U 23028P   23348.55813265 -.00000318  00000-0 -18887-4 0  9996,2 55754  69.9997 142.1304 0002775 263.0247  97.0597 14.98330826 43791,6950.19,96.107,573.984,570.127,0.0
55754.0,STARLINK-5612,PAYLOAD,2023-12-14 19:48:14,14.98329746,0.0002681,69.9995,141.4563,258.224,101.8618,-1.1703e-05,-2.33e-06,0.0,0 STARLINK-5612,1 55754U 23028P   23348.82517285 -.00000233  00000-0 -11703-4 0  9995,2 55754  69.9995 141.4563 0002681 258.2240 101.8618 14.98329746 43835,6950.194,96.107,573.922,570.195,0.0
55754.0,STARLINK-5612,PAYLOAD,2023-12-15 11:49:35,14.98326947,0.0002566,69.9997,139.7725,257.23,102.8572,-1.067e-05,-2.2e-06,0.0,0 STARLINK-5612,1 55754U 23028P   23349.49277483 -.00000220  00000-0 -10670-4 0  9990,2 55754  69.9997 139.7725 0002566 257.2300 102.8572 14.98326947 43936,6950.202,96.107,573.851,570.284,0.0
55754.0,STARLINK-5612,PAYLOAD,2023-12-15 19:50:16,14.98327349,0.0002766,69.9998,138.9316,260.6247,99.4599,-1.1666e-05,-2.32e-06,0.0,0 STARLINK-5612,1 55754U 23028P   23349.82657520 -.00000232  00000-0 -11666-4 0  9990,2 55754  69.9998 138.9316 0002766 260.6247  99.4599 14.98327349 43986,6950.201,96.107,573.989,570.144,0.0
55754.0,STARLINK-5612,PAYLOAD,2023-12-16 11:51:36,14.98327567,0.0002723,69.9997,137.2485,260.5953,99.4898,-4.8905e-06,-1.51e-06,0.0,0 STARLINK-5612,1 55754U 23028P   23350.49417564 -.00000151  00000-0 -48905-5 0  9994,2 55754  69.9997 137.2485 0002723 260.5953  99.4898 14.98327567 44086,6950.2,96.107,573.958,570.173,0.0
55754.0,STARLINK-5612,PAYLOAD,2023-12-16 13:27:44,14.98327318,0.0002743,69.9997,137.0801,260.996,99.0888,-9.1882e-06,-2.03e-06,0.0,0 STARLINK-5612,1 55754U 23028P   23350.56093603 -.00000203  00000-0 -91882-5 0  9996,2 55754  69.9997 137.0801 0002743 260.9960  99.0888 14.98327318 44090,6950.201,96.107,573.973,570.16,0.0
55754.0,STARLINK-5612,PAYLOAD,2023-12-16 19:52:17,14.98326868,0.0002773,69.9997,136.4068,262.7286,97.3558,-1.4182e-05,-2.62e-06,0.0,0 STARLINK-5612,1 55754U 23028P   23350.82797708 -.00000262  00000-0 -14182-4 0  9994,2 55754  69.9997 136.4068 0002773 262.7286  97.3558 14.98326868 44131,6950.203,96.107,573.995,570.14,0.0
55754.0,STARLINK-5612,PAYLOAD,2023-12-17 11:53:37,14.98332847,0.0002965,69.9993,134.7233,266.6045,93.4775,5.4883e-05,5.62e-06,0.0,0 STARLINK-5612,1 55754U 23028P   23351.49557136  .00000562  00000-0  54883-4 0  9990,2 55754  69.9993 134.7233 0002965 266.6045  93.4775 14.98332847 44234,6950.184,96.107,574.11,569.988,0.0
55754.0,STARLINK-5612,PAYLOAD,2023-12-17 15:05:53,14.98333368,0.0002954,69.9994,134.3865,267.5849,92.4972,6.122e-05,6.38e-06,0.0,0 STARLINK-5612,1 55754U 23028P   23351.62909071  .00000638  00000-0  61220-4 0  9991,2 55754  69.9994 134.3865 0002954 267.5849  92.4972 14.98333368 44251,6950.182,96.107,574.101,569.994,0.0
55754.0,STARLINK-5612,PAYLOAD,2023-12-17 19:54:17,14.9833706,0.0002886,69.9995,133.8826,262.0408,98.0424,0.00010118,1.115e-05,0.0,0 STARLINK-5612,1 55754U 23028P   23351.82936632  .00001115  00000-0  10118-3 0  9996,2 55754  69.9995 133.8826 0002886 262.0408  98.0424 14.98337060 44288,6950.171,96.107,574.042,570.03,0.0
55754.0,STARLINK-5612,PAYLOAD,2023-12-18 11:55:37,14.98342984,0.0002977,69.9994,132.1989,265.2889,94.793,0.000149,1.686e-05,0.0,0 STARLINK-5612,1 55754U 23028P   23352.49695692  .00001686  00000-0  14900-3 0  9994,2 55754  69.9994 132.1989 0002977 265.2889  94.7930 14.98342984 44385,6950.153,96.106,574.087,569.949,0.0
55754.0,STARLINK-5612,PAYLOAD,2023-12-18 13:31:45,14.98343114,0.0002976,69.9994,132.0305,265.3608,94.7212,0.00014833,1.678e-05,0.0,0 STARLINK-5612,1 55754U 23028P   23352.56371626  .00001678  00000-0  14833-3 0  9996,2 55754  69.9994 132.0305 0002976 265.3608  94.7212 14.98343114 44395,6950.152,96.106,574.086,569.949,0.0
55754.0,STARLINK-5612,PAYLOAD,2023-12-18 19:56:17,14.98343886,0.0002603,69.9998,131.3569,253.3025,106.7848,0.00017956,2.051e-05,0.0,0 STARLINK-5612,1 55754U 23028P   23352.83075262  .00002051  00000-0  17956-3 0  9998,2 55754  69.9998 131.3569 0002603 253.3025 106.7848 14.98343886 44430,6950.15,96.106,573.824,570.206,0.0
55754.0,STARLINK-5612,PAYLOAD,2023-12-19 11:57:39,14.98322649,0.0003164,69.9997,129.6754,267.643,92.4367,-0.00019415,-2.408e-05,0.0,0 STARLINK-5612,1 55754U 23028P   23353.49837575 -.00002408  00000-0 -19415-3 0  9994,2 55754  69.9997 129.6754 0003164 267.6430  92.4367 14.98322649 44538,6950.216,96.107,574.28,569.882,0.0
55754.0,STARLINK-5612,PAYLOAD,2023-12-19 13:33:47,14.98323726,0.0003147,69.999,129.5061,267.959,92.1209,-0.00019688,-2.441e-05,0.0,0 STARLINK-5612,1 55754U 23028P   23353.56513511 -.00002441  00000-0 -19688-3 0  9992,2 55754  69.9990 129.5061 0003147 267.9590  92.1209 14.98323726 44542,6950.212,96.107,574.265,569.89,0.0
55754.0,STARLINK-5612,PAYLOAD,2023-12-20 11:59:40,14.98329613,0.0003128,69.9992,127.1481,273.9476,86.1325,-0.00018399,-2.288e-05,0.0,0 STARLINK-5612,1 55754U 23028P   23354.49977299 -.00002288  00000-0 -18399-3 0  9999,2 55754  69.9992 127.1481 0003128 273.9476  86.1325 14.98329613 44681,6950.194,96.107,574.233,569.885,0.0
55754.0,STARLINK-5612,PAYLOAD,2023-12-20 13:35:48,14.98330294,0.0003033,69.9995,126.9801,271.4936,88.5876,-0.0001444,-1.816e-05,0.0,0 STARLINK-5612,1 55754U 23028P   23354.56653137 -.00001816  00000-0 -14440-3 0  9998,2 55754  69.9995 126.9801 0003033 271.4936  88.5876 14.98330294 44691,6950.192,96.107,574.165,569.949,0.0
55754.0,STARLINK-5612,PAYLOAD,2023-12-20 18:24:11,14.98339005,0.0002977,69.9999,126.476,275.7913,84.2907,-4.9498e-05,-6.84e-06,0.0,0 STARLINK-5612,1 55754U 23028P   23354.76680364 -.00000684  00000-0 -49498-4 0  9996,2 55754  69.9999 126.4760 0002977 275.7913  84.2907 14.98339005 44723,6950.165,96.106,574.099,569.961,0.0
55754.0,STARLINK-5612,PAYLOAD,2023-12-21 12:01:41,14.98318204,0.0002597,70.0005,124.6256,257.2925,102.7943,0.00015261,1.728e-05,0.0,0 STARLINK-5612,1 55754U 23028P   23355.50117194  .00001728  00000-0  15261-3 0  9993,2 55754  70.0005 124.6256 0002597 257.2925 102.7943 14.98318204 44836,6950.229,96.108,573.899,570.289,0.0
